STARLINK-36796          
1 67722U 26026B   26064.66667824 -.01952880  00000+0 -25060-1 0  9991
2 67722  97.2836 119.1024 0001458  73.2685 323.0674 15.62366924  4663
STARLINK-36369          
1 67723U 26026C   26064.66667824 -.01954584  00000+0 -24691-1 0  9994
2 67723  97.2836 119.1076 0001559  65.0691 343.3776 15.62769765  4667
STARLINK-36752          
1 67724U 26026D   26064.66667824 -.01956631  00000+0 -23487-1 0  9992
2 67724  97.2838 119.1185 0001694  69.7525   5.5830 15.64065336  4661
STARLINK-36754          
1 67725U 26026E   26064.66667824 -.01946734  00000+0 -25851-1 0  9993
2 67725  97.2837 119.1041 0001534  66.7098 334.7392 15.61476646  4664
STARLINK-36755          
1 67726U 26026F   26064.66667824 -.01936902  00000+0 -28248-1 0  9993
2 67726  97.2837 119.0891 0001438  70.9290 295.1037 15.59021916  4660
STARLINK-36741          
1 67727U 26026G   26064.66667824 -.01937737  00000+0 -27072-1 0  9995
2 67727  97.2837 119.1001 0001517  70.8893 320.5231 15.60145606  4665
STARLINK-36757          
1 67728U 26026H   26064.66667824 -.01956445  00000+0 -22967-1 0  9991
2 67728  97.2840 119.1329 0001767  71.7357  37.0218 15.64624476  4661
STARLINK-36751          
1 67729U 26026J   26064.66667824 -.01955758  00000+0 -22444-1 0  9998
2 67729  97.2843 119.1425 0001747  74.1469  56.4260 15.65191431  4664
STARLINK-36747          
1 67730U 26026K   26064.66667824 -.01955894  00000+0 -22536-1 0  9993
2 67730  97.2844 119.1381 0001796  72.1479  48.5316 15.65091185  4660
STARLINK-36315          
1 67731U 26026L   26064.66667824 -.01952273  00000+0 -22244-1 0  9998
2 67731  97.2843 119.1459 0001691  84.8940  53.5152 15.65365628  4663
STARLINK-36260          
1 67732U 26026M   26064.66667824 -.01959148  00000+0 -21987-1 0  9990
2 67732  97.2844 119.1509 0001861  76.3072  73.7916 15.65752051  4664
STARLINK-36746          
1 67733U 26026N   26064.66667824  .00075249  00000+0  13729-2 0  9995
2 67733  97.2848 118.9718 0001348  61.5118  25.5971 15.49172281  4664
