CCSDS_OMM_VERS = 2.0
CREATION_DATE  = 
ORIGINATOR     = 

OBJECT_NAME    = STARLINK-36796
OBJECT_ID      = 2026-026B
CENTER_NAME    = EARTH
REF_FRAME      = TEME
TIME_SYSTEM    = UTC
MEAN_ELEMENT_THEORY = SGP/SGP4

EPOCH          = 2026-03-05T16:00:00.999936
MEAN_MOTION    = 15.62366924
ECCENTRICITY   = .0001458
INCLINATION    = 97.2836
RA_OF_ASC_NODE = 119.1024
ARG_OF_PERICENTER = 73.2685
MEAN_ANOMALY   = 323.0674

EPHEMERIS_TYPE = 0
CLASSIFICATION_TYPE = U
NORAD_CAT_ID   = 67722
ELEMENT_SET_NO = 999
REV_AT_EPOCH   = 466
BSTAR          = -.2506E-1
MEAN_MOTION_DOT = -.195288E-1
MEAN_MOTION_DDOT = 0

CCSDS_OMM_VERS = 2.0
CREATION_DATE  = 
ORIGINATOR     = 

OBJECT_NAME    = STARLINK-36369
OBJECT_ID      = 2026-026C
CENTER_NAME    = EARTH
REF_FRAME      = TEME
TIME_SYSTEM    = UTC
MEAN_ELEMENT_THEORY = SGP/SGP4

EPOCH          = 2026-03-05T16:00:00.999936
MEAN_MOTION    = 15.62769765
ECCENTRICITY   = .0001559
INCLINATION    = 97.2836
RA_OF_ASC_NODE = 119.1076
ARG_OF_PERICENTER = 65.0691
MEAN_ANOMALY   = 343.3776

EPHEMERIS_TYPE = 0
CLASSIFICATION_TYPE = U
NORAD_CAT_ID   = 67723
ELEMENT_SET_NO = 999
REV_AT_EPOCH   = 466
BSTAR          = -.24691E-1
MEAN_MOTION_DOT = -.1954584E-1
MEAN_MOTION_DDOT = 0

CCSDS_OMM_VERS = 2.0
CREATION_DATE  = 
ORIGINATOR     = 

OBJECT_NAME    = STARLINK-36752
OBJECT_ID      = 2026-026D
CENTER_NAME    = EARTH
REF_FRAME      = TEME
TIME_SYSTEM    = UTC
MEAN_ELEMENT_THEORY = SGP/SGP4

EPOCH          = 2026-03-05T16:00:00.999936
MEAN_MOTION    = 15.64065336
ECCENTRICITY   = .0001694
INCLINATION    = 97.2838
RA_OF_ASC_NODE = 119.1185
ARG_OF_PERICENTER = 69.7525
MEAN_ANOMALY   = 5.5830

EPHEMERIS_TYPE = 0
CLASSIFICATION_TYPE = U
NORAD_CAT_ID   = 67724
ELEMENT_SET_NO = 999
REV_AT_EPOCH   = 466
BSTAR          = -.23487E-1
MEAN_MOTION_DOT = -.1956631E-1
MEAN_MOTION_DDOT = 0

CCSDS_OMM_VERS = 2.0
CREATION_DATE  = 
ORIGINATOR     = 

OBJECT_NAME    = STARLINK-36754
OBJECT_ID      = 2026-026E
CENTER_NAME    = EARTH
REF_FRAME      = TEME
TIME_SYSTEM    = UTC
MEAN_ELEMENT_THEORY = SGP/SGP4

EPOCH          = 2026-03-05T16:00:00.999936
MEAN_MOTION    = 15.61476646
ECCENTRICITY   = .0001534
INCLINATION    = 97.2837
RA_OF_ASC_NODE = 119.1041
ARG_OF_PERICENTER = 66.7098
MEAN_ANOMALY   = 334.7392

EPHEMERIS_TYPE = 0
CLASSIFICATION_TYPE = U
NORAD_CAT_ID   = 67725
ELEMENT_SET_NO = 999
REV_AT_EPOCH   = 466
BSTAR          = -.25851E-1
MEAN_MOTION_DOT = -.1946734E-1
MEAN_MOTION_DDOT = 0

CCSDS_OMM_VERS = 2.0
CREATION_DATE  = 
ORIGINATOR     = 

OBJECT_NAME    = STARLINK-36755
OBJECT_ID      = 2026-026F
CENTER_NAME    = EARTH
REF_FRAME      = TEME
TIME_SYSTEM    = UTC
MEAN_ELEMENT_THEORY = SGP/SGP4

EPOCH          = 2026-03-05T16:00:00.999936
MEAN_MOTION    = 15.59021916
ECCENTRICITY   = .0001438
INCLINATION    = 97.2837
RA_OF_ASC_NODE = 119.0891
ARG_OF_PERICENTER = 70.9290
MEAN_ANOMALY   = 295.1037

EPHEMERIS_TYPE = 0
CLASSIFICATION_TYPE = U
NORAD_CAT_ID   = 67726
ELEMENT_SET_NO = 999
REV_AT_EPOCH   = 466
BSTAR          = -.28248E-1
MEAN_MOTION_DOT = -.1936902E-1
MEAN_MOTION_DDOT = 0

CCSDS_OMM_VERS = 2.0
CREATION_DATE  = 
ORIGINATOR     = 

OBJECT_NAME    = STARLINK-36741
OBJECT_ID      = 2026-026G
CENTER_NAME    = EARTH
REF_FRAME      = TEME
TIME_SYSTEM    = UTC
MEAN_ELEMENT_THEORY = SGP/SGP4

EPOCH          = 2026-03-05T16:00:00.999936
MEAN_MOTION    = 15.60145606
ECCENTRICITY   = .0001517
INCLINATION    = 97.2837
RA_OF_ASC_NODE = 119.1001
ARG_OF_PERICENTER = 70.8893
MEAN_ANOMALY   = 320.5231

EPHEMERIS_TYPE = 0
CLASSIFICATION_TYPE = U
NORAD_CAT_ID   = 67727
ELEMENT_SET_NO = 999
REV_AT_EPOCH   = 466
BSTAR          = -.27072E-1
MEAN_MOTION_DOT = -.1937737E-1
MEAN_MOTION_DDOT = 0

CCSDS_OMM_VERS = 2.0
CREATION_DATE  = 
ORIGINATOR     = 

OBJECT_NAME    = STARLINK-36757
OBJECT_ID      = 2026-026H
CENTER_NAME    = EARTH
REF_FRAME      = TEME
TIME_SYSTEM    = UTC
MEAN_ELEMENT_THEORY = SGP/SGP4

EPOCH          = 2026-03-05T16:00:00.999936
MEAN_MOTION    = 15.64624476
ECCENTRICITY   = .0001767
INCLINATION    = 97.2840
RA_OF_ASC_NODE = 119.1329
ARG_OF_PERICENTER = 71.7357
MEAN_ANOMALY   = 37.0218

EPHEMERIS_TYPE = 0
CLASSIFICATION_TYPE = U
NORAD_CAT_ID   = 67728
ELEMENT_SET_NO = 999
REV_AT_EPOCH   = 466
BSTAR          = -.22967E-1
MEAN_MOTION_DOT = -.1956445E-1
MEAN_MOTION_DDOT = 0

CCSDS_OMM_VERS = 2.0
CREATION_DATE  = 
ORIGINATOR     = 

OBJECT_NAME    = STARLINK-36751
OBJECT_ID      = 2026-026J
CENTER_NAME    = EARTH
REF_FRAME      = TEME
TIME_SYSTEM    = UTC
MEAN_ELEMENT_THEORY = SGP/SGP4

EPOCH          = 2026-03-05T16:00:00.999936
MEAN_MOTION    = 15.65191431
ECCENTRICITY   = .0001747
INCLINATION    = 97.2843
RA_OF_ASC_NODE = 119.1425
ARG_OF_PERICENTER = 74.1469
MEAN_ANOMALY   = 56.4260

EPHEMERIS_TYPE = 0
CLASSIFICATION_TYPE = U
NORAD_CAT_ID   = 67729
ELEMENT_SET_NO = 999
REV_AT_EPOCH   = 466
BSTAR          = -.22444E-1
MEAN_MOTION_DOT = -.1955758E-1
MEAN_MOTION_DDOT = 0

CCSDS_OMM_VERS = 2.0
CREATION_DATE  = 
ORIGINATOR     = 

OBJECT_NAME    = STARLINK-36747
OBJECT_ID      = 2026-026K
CENTER_NAME    = EARTH
REF_FRAME      = TEME
TIME_SYSTEM    = UTC
MEAN_ELEMENT_THEORY = SGP/SGP4

EPOCH          = 2026-03-05T16:00:00.999936
MEAN_MOTION    = 15.65091185
ECCENTRICITY   = .0001796
INCLINATION    = 97.2844
RA_OF_ASC_NODE = 119.1381
ARG_OF_PERICENTER = 72.1479
MEAN_ANOMALY   = 48.5316

EPHEMERIS_TYPE = 0
CLASSIFICATION_TYPE = U
NORAD_CAT_ID   = 67730
ELEMENT_SET_NO = 999
REV_AT_EPOCH   = 466
BSTAR          = -.22536E-1
MEAN_MOTION_DOT = -.1955894E-1
MEAN_MOTION_DDOT = 0

CCSDS_OMM_VERS = 2.0
CREATION_DATE  = 
ORIGINATOR     = 

OBJECT_NAME    = STARLINK-36315
OBJECT_ID      = 2026-026L
CENTER_NAME    = EARTH
REF_FRAME      = TEME
TIME_SYSTEM    = UTC
MEAN_ELEMENT_THEORY = SGP/SGP4

EPOCH          = 2026-03-05T16:00:00.999936
MEAN_MOTION    = 15.65365628
ECCENTRICITY   = .0001691
INCLINATION    = 97.2843
RA_OF_ASC_NODE = 119.1459
ARG_OF_PERICENTER = 84.8940
MEAN_ANOMALY   = 53.5152

EPHEMERIS_TYPE = 0
CLASSIFICATION_TYPE = U
NORAD_CAT_ID   = 67731
ELEMENT_SET_NO = 999
REV_AT_EPOCH   = 466
BSTAR          = -.22244E-1
MEAN_MOTION_DOT = -.1952273E-1
MEAN_MOTION_DDOT = 0

CCSDS_OMM_VERS = 2.0
CREATION_DATE  = 
ORIGINATOR     = 

OBJECT_NAME    = STARLINK-36260
OBJECT_ID      = 2026-026M
CENTER_NAME    = EARTH
REF_FRAME      = TEME
TIME_SYSTEM    = UTC
MEAN_ELEMENT_THEORY = SGP/SGP4

EPOCH          = 2026-03-05T16:00:00.999936
MEAN_MOTION    = 15.65752051
ECCENTRICITY   = .0001861
INCLINATION    = 97.2844
RA_OF_ASC_NODE = 119.1509
ARG_OF_PERICENTER = 76.3072
MEAN_ANOMALY   = 73.7916

EPHEMERIS_TYPE = 0
CLASSIFICATION_TYPE = U
NORAD_CAT_ID   = 67732
ELEMENT_SET_NO = 999
REV_AT_EPOCH   = 466
BSTAR          = -.21987E-1
MEAN_MOTION_DOT = -.1959148E-1
MEAN_MOTION_DDOT = 0

CCSDS_OMM_VERS = 2.0
CREATION_DATE  = 
ORIGINATOR     = 

OBJECT_NAME    = STARLINK-36746
OBJECT_ID      = 2026-026N
CENTER_NAME    = EARTH
REF_FRAME      = TEME
TIME_SYSTEM    = UTC
MEAN_ELEMENT_THEORY = SGP/SGP4

EPOCH          = 2026-03-05T16:00:00.999936
MEAN_MOTION    = 15.49172281
ECCENTRICITY   = .0001348
INCLINATION    = 97.2848
RA_OF_ASC_NODE = 118.9718
ARG_OF_PERICENTER = 61.5118
MEAN_ANOMALY   = 25.5971

EPHEMERIS_TYPE = 0
CLASSIFICATION_TYPE = U
NORAD_CAT_ID   = 67733
ELEMENT_SET_NO = 999
REV_AT_EPOCH   = 466
BSTAR          = .13729E-2
MEAN_MOTION_DOT = .75249E-3
MEAN_MOTION_DDOT = 0

